[{"OBJECT_NAME":"ONEWEB-0240","OBJECT_ID":"2021-045U","EPOCH":"2025-09-27T13:22:06.326688","MEAN_MOTION":13.15551325,"ECCENTRICITY":0.00017964,"INCLINATION":87.9007,"RA_OF_ASC_NODE":311.5698,"ARG_OF_PERICENTER":109.0252,"MEAN_ANOMALY":251.1073,"EPHEMERIS_TYPE":0,"CLASSIFICATION_TYPE":"U","NORAD_CAT_ID":48785,"ELEMENT_SET_NO":999,"REV_AT_EPOCH":20987,"BSTAR":0.00023067395,"MEAN_MOTION_DOT":1.0e-6,"MEAN_MOTION_DDOT":0},{"OBJECT_NAME":"ONEWEB-0246","OBJECT_ID":"2021-045V","EPOCH":"2025-09-27T13:14:05.722368","MEAN_MOTION":13.15549897,"ECCENTRICITY":0.00016624,"INCLINATION":87.9009,"RA_OF_ASC_NODE":311.5835,"ARG_OF_PERICENTER":94.9105,"MEAN_ANOMALY":265.2215,"EPHEMERIS_TYPE":0,"CLASSIFICATION_TYPE":"U","NORAD_CAT_ID":48786,"ELEMENT_SET_NO":999,"REV_AT_EPOCH":20974,"BSTAR":6.1057442e-5,"MEAN_MOTION_DOT":3.6e-7,"MEAN_MOTION_DDOT":0},{"OBJECT_NAME":"ONEWEB-0210","OBJECT_ID":"2021-045W","EPOCH":"2025-09-27T03:29:58.856640","MEAN_MOTION":13.15549945,"ECCENTRICITY":0.00011317,"INCLINATION":87.9012,"RA_OF_ASC_NODE":311.6638,"ARG_OF_PERICENTER":93.5463,"MEAN_ANOMALY":266.5797,"EPHEMERIS_TYPE":0,"CLASSIFICATION_TYPE":"U","NORAD_CAT_ID":48787,"ELEMENT_SET_NO":999,"REV_AT_EPOCH":20973,"BSTAR":-0.00022716009,"MEAN_MOTION_DOT":-7.3e-7,"MEAN_MOTION_DDOT":0},{"OBJECT_NAME":"ONEWEB-0214","OBJECT_ID":"2021-045X","EPOCH":"2025-09-27T12:50:08.180160","MEAN_MOTION":13.15549353,"ECCENTRICITY":0.00014249,"INCLINATION":87.9006,"RA_OF_ASC_NODE":311.5734,"ARG_OF_PERICENTER":87.5065,"MEAN_ANOMALY":272.6229,"EPHEMERIS_TYPE":0,"CLASSIFICATION_TYPE":"U","NORAD_CAT_ID":48788,"ELEMENT_SET_NO":999,"REV_AT_EPOCH":20975,"BSTAR":-0.00030768368,"MEAN_MOTION_DOT":-1.03e-6,"MEAN_MOTION_DDOT":0},{"OBJECT_NAME":"ONEWEB-0221","OBJECT_ID":"2021-045Y","EPOCH":"2025-09-27T13:00:24.724512","MEAN_MOTION":13.15547357,"ECCENTRICITY":0.00016152,"INCLINATION":87.8999,"RA_OF_ASC_NODE":311.5966,"ARG_OF_PERICENTER":99.7217,"MEAN_ANOMALY":260.4096,"EPHEMERIS_TYPE":0,"CLASSIFICATION_TYPE":"U","NORAD_CAT_ID":48789,"ELEMENT_SET_NO":999,"REV_AT_EPOCH":20984,"BSTAR":-0.00014779829,"MEAN_MOTION_DOT":-4.3e-7,"MEAN_MOTION_DDOT":0},{"OBJECT_NAME":"ONEWEB-0213","OBJECT_ID":"2021-045Z","EPOCH":"2025-09-27T12:44:25.732032","MEAN_MOTION":13.15550317,"ECCENTRICITY":0.00015546,"INCLINATION":87.9002,"RA_OF_ASC_NODE":311.6078,"ARG_OF_PERICENTER":99.6101,"MEAN_ANOMALY":260.5205,"EPHEMERIS_TYPE":0,"CLASSIFICATION_TYPE":"U","NORAD_CAT_ID":48790,"ELEMENT_SET_NO":999,"REV_AT_EPOCH":20990,"BSTAR":-0.00029138223,"MEAN_MOTION_DOT":-9.7e-7,"MEAN_MOTION_DDOT":0},{"OBJECT_NAME":"ONEWEB-0212","OBJECT_ID":"2021-045AA","EPOCH":"2025-09-27T12:11:21.651936","MEAN_MOTION":13.15549385,"ECCENTRICITY":0.00018658,"INCLINATION":87.9007,"RA_OF_ASC_NODE":311.5954,"ARG_OF_PERICENTER":97.0918,"MEAN_ANOMALY":263.0425,"EPHEMERIS_TYPE":0,"CLASSIFICATION_TYPE":"U","NORAD_CAT_ID":48791,"ELEMENT_SET_NO":999,"REV_AT_EPOCH":20989,"BSTAR":-6.6725154e-5,"MEAN_MOTION_DOT":-1.2e-7,"MEAN_MOTION_DDOT":0},{"OBJECT_NAME":"ONEWEB-0227","OBJECT_ID":"2021-045AB","EPOCH":"2025-09-27T13:59:44.971296","MEAN_MOTION":13.15547514,"ECCENTRICITY":0.00017326,"INCLINATION":87.9002,"RA_OF_ASC_NODE":311.5982,"ARG_OF_PERICENTER":99.6117,"MEAN_ANOMALY":260.5209,"EPHEMERIS_TYPE":0,"CLASSIFICATION_TYPE":"U","NORAD_CAT_ID":48792,"ELEMENT_SET_NO":999,"REV_AT_EPOCH":20985,"BSTAR":6.0570266e-5,"MEAN_MOTION_DOT":3.6e-7,"MEAN_MOTION_DDOT":0},{"OBJECT_NAME":"ONEWEB-0226","OBJECT_ID":"2021-045AC","EPOCH":"2025-09-27T12:01:05.180160","MEAN_MOTION":13.155485,"ECCENTRICITY":0.00014591,"INCLINATION":87.9004,"RA_OF_ASC_NODE":311.6223,"ARG_OF_PERICENTER":96.4828,"MEAN_ANOMALY":263.6468,"EPHEMERIS_TYPE":0,"CLASSIFICATION_TYPE":"U","NORAD_CAT_ID":48793,"ELEMENT_SET_NO":999,"REV_AT_EPOCH":20981,"BSTAR":0.00014082449,"MEAN_MOTION_DOT":6.6e-7,"MEAN_MOTION_DDOT":0},{"OBJECT_NAME":"ONEWEB-0224","OBJECT_ID":"2021-045AD","EPOCH":"2025-09-27T12:58:08.880384","MEAN_MOTION":13.1554761,"ECCENTRICITY":0.00022473,"INCLINATION":87.9002,"RA_OF_ASC_NODE":311.6492,"ARG_OF_PERICENTER":120.197,"MEAN_ANOMALY":239.9383,"EPHEMERIS_TYPE":0,"CLASSIFICATION_TYPE":"U","NORAD_CAT_ID":48794,"ELEMENT_SET_NO":999,"REV_AT_EPOCH":20974,"BSTAR":-0.0001340309,"MEAN_MOTION_DOT":-3.8e-7,"MEAN_MOTION_DDOT":0},{"OBJECT_NAME":"ONEWEB-0233","OBJECT_ID":"2021-045AE","EPOCH":"2025-09-27T13:04:46.419744","MEAN_MOTION":13.15549451,"ECCENTRICITY":0.00016853,"INCLINATION":87.9002,"RA_OF_ASC_NODE":311.6595,"ARG_OF_PERICENTER":105.9061,"MEAN_ANOMALY":254.2255,"EPHEMERIS_TYPE":0,"CLASSIFICATION_TYPE":"U","NORAD_CAT_ID":48795,"ELEMENT_SET_NO":999,"REV_AT_EPOCH":20976,"BSTAR":4.7587933e-5,"MEAN_MOTION_DOT":3.1e-7,"MEAN_MOTION_DDOT":0},{"OBJECT_NAME":"ONEWEB-0190","OBJECT_ID":"2021-045AF","EPOCH":"2025-09-27T12:46:42.904128","MEAN_MOTION":13.15547088,"ECCENTRICITY":0.00012101,"INCLINATION":87.9002,"RA_OF_ASC_NODE":311.625,"ARG_OF_PERICENTER":115.6997,"MEAN_ANOMALY":244.4258,"EPHEMERIS_TYPE":0,"CLASSIFICATION_TYPE":"U","NORAD_CAT_ID":48796,"ELEMENT_SET_NO":999,"REV_AT_EPOCH":20983,"BSTAR":-0.00021903413,"MEAN_MOTION_DOT":-7.0e-7,"MEAN_MOTION_DDOT":0},{"OBJECT_NAME":"ONEWEB-0236","OBJECT_ID":"2021-045AG","EPOCH":"2025-09-27T13:11:48.846624","MEAN_MOTION":13.15550319,"ECCENTRICITY":0.00019627,"INCLINATION":87.9,"RA_OF_ASC_NODE":311.6322,"ARG_OF_PERICENTER":95.863,"MEAN_ANOMALY":264.2724,"EPHEMERIS_TYPE":0,"CLASSIFICATION_TYPE":"U","NORAD_CAT_ID":48797,"ELEMENT_SET_NO":999,"REV_AT_EPOCH":20972,"BSTAR":5.3575511e-5,"MEAN_MOTION_DOT":3.3e-7,"MEAN_MOTION_DDOT":0},{"OBJECT_NAME":"ONEWEB-0248","OBJECT_ID":"2021-045AH","EPOCH":"2025-09-27T13:30:03.235680","MEAN_MOTION":13.15550654,"ECCENTRICITY":0.0001722,"INCLINATION":87.901,"RA_OF_ASC_NODE":311.5859,"ARG_OF_PERICENTER":117.8098,"MEAN_ANOMALY":242.3207,"EPHEMERIS_TYPE":0,"CLASSIFICATION_TYPE":"U","NORAD_CAT_ID":48798,"ELEMENT_SET_NO":999,"REV_AT_EPOCH":20988,"BSTAR":0.00036297168,"MEAN_MOTION_DOT":1.49e-6,"MEAN_MOTION_DDOT":0},{"OBJECT_NAME":"ONEWEB-0225","OBJECT_ID":"2021-045AJ","EPOCH":"2025-09-27T12:12:29.469888","MEAN_MOTION":13.15549826,"ECCENTRICITY":0.00013111,"INCLINATION":87.9004,"RA_OF_ASC_NODE":311.6265,"ARG_OF_PERICENTER":110.7206,"MEAN_ANOMALY":249.4065,"EPHEMERIS_TYPE":0,"CLASSIFICATION_TYPE":"U","NORAD_CAT_ID":48799,"ELEMENT_SET_NO":999,"REV_AT_EPOCH":20988,"BSTAR":-2.1790071e-5,"MEAN_MOTION_DOT":5.0e-8,"MEAN_MOTION_DDOT":0},{"OBJECT_NAME":"ONEWEB-0215","OBJECT_ID":"2021-045AK","EPOCH":"2025-09-27T13:18:41.202720","MEAN_MOTION":13.15548285,"ECCENTRICITY":0.00014568,"INCLINATION":87.9012,"RA_OF_ASC_NODE":311.5705,"ARG_OF_PERICENTER":118.4255,"MEAN_ANOMALY":241.7022,"EPHEMERIS_TYPE":0,"CLASSIFICATION_TYPE":"U","NORAD_CAT_ID":48800,"ELEMENT_SET_NO":999,"REV_AT_EPOCH":20976,"BSTAR":0.00021863086,"MEAN_MOTION_DOT":9.5e-7,"MEAN_MOTION_DDOT":0}]
