ONEWEB-0240             
1 48785U 21045U   25270.55701767  .00000100  00000+0  23067-3 0  9999
2 48785  87.9007 311.5698 0001796 109.0252 251.1073 13.15551325209876
ONEWEB-0246             
1 48786U 21045V   25270.55145512  .00000036  00000+0  61057-4 0  9990
2 48786  87.9009 311.5835 0001662  94.9105 265.2215 13.15549897209744
ONEWEB-0210             
1 48787U 21045W   25270.14582010 -.00000073  00000+0 -22716-3 0  9995
2 48787  87.9012 311.6638 0001131  93.5463 266.5797 13.15549945209736
ONEWEB-0214             
1 48788U 21045X   25270.53481690 -.00000103  00000+0 -30768-3 0  9991
2 48788  87.9006 311.5734 0001424  87.5065 272.6229 13.15549353209755
ONEWEB-0221             
1 48789U 21045Y   25270.54195283 -.00000043  00000+0 -14780-3 0  9992
2 48789  87.8999 311.5966 0001615  99.7217 260.4096 13.15547357209848
ONEWEB-0213             
1 48790U 21045Z   25270.53085338 -.00000097  00000+0 -29138-3 0  9994
2 48790  87.9002 311.6078 0001554  99.6101 260.5205 13.15550317209904
ONEWEB-0212             
1 48791U 21045AA  25270.50788949 -.00000012  00000+0 -66725-4 0  9991
2 48791  87.9007 311.5954 0001865  97.0918 263.0425 13.15549385209898
ONEWEB-0227             
1 48792U 21045AB  25270.58315939  .00000036  00000+0  60570-4 0  9991
2 48792  87.9002 311.5982 0001732  99.6117 260.5209 13.15547514209857
ONEWEB-0226             
1 48793U 21045AC  25270.50075440  .00000066  00000+0  14082-3 0  9993
2 48793  87.9004 311.6223 0001459  96.4828 263.6468 13.15548500209812
ONEWEB-0224             
1 48794U 21045AD  25270.54038056 -.00000038  00000+0 -13403-3 0  9997
2 48794  87.9002 311.6492 0002247 120.1970 239.9383 13.15547610209743
ONEWEB-0233             
1 48795U 21045AE  25270.54498171  .00000031  00000+0  47588-4 0  9999
2 48795  87.9002 311.6595 0001685 105.9061 254.2255 13.15549451209760
ONEWEB-0190             
1 48796U 21045AF  25270.53244102 -.00000070  00000+0 -21903-3 0  9999
2 48796  87.9002 311.6250 0001210 115.6997 244.4258 13.15547088209835
ONEWEB-0236             
1 48797U 21045AG  25270.54987091  .00000033  00000+0  53576-4 0  9991
2 48797  87.9000 311.6322 0001962  95.8630 264.2724 13.15550319209728
ONEWEB-0248             
1 48798U 21045AH  25270.56253745  .00000149  00000+0  36297-3 0  9994
2 48798  87.9010 311.5859 0001722 117.8098 242.3207 13.15550654209883
ONEWEB-0225             
1 48799U 21045AJ  25270.50867442  .00000005  00000+0 -21790-4 0  9999
2 48799  87.9004 311.6265 0001311 110.7206 249.4065 13.15549826209885
ONEWEB-0215             
1 48800U 21045AK  25270.55464355  .00000095  00000+0  21863-3 0  9991
2 48800  87.9012 311.5705 0001456 118.4255 241.7022 13.15548285209767
